[{"OBJECT_NAME":"ONEWEB-0576","OBJECT_ID":"2023-043V","EPOCH":"2026-05-30T04:51:19.220256","MEAN_MOTION":13.16592702,"ECCENTRICITY":0.0002237,"INCLINATION":87.9107,"RA_OF_ASC_NODE":232.3454,"ARG_OF_PERICENTER":96.9545,"MEAN_ANOMALY":263.1841,"EPHEMERIS_TYPE":0,"CLASSIFICATION_TYPE":"U","NORAD_CAT_ID":56065,"ELEMENT_SET_NO":999,"REV_AT_EPOCH":15659,"BSTAR":0.00013023,"MEAN_MOTION_DOT":6.3e-07,"MEAN_MOTION_DDOT":0.0},{"OBJECT_NAME":"ONEWEB-0577","OBJECT_ID":"2023-043W","EPOCH":"2026-05-30T05:00:26.559936","MEAN_MOTION":13.16592862,"ECCENTRICITY":0.0002681,"INCLINATION":87.9106,"RA_OF_ASC_NODE":232.342,"ARG_OF_PERICENTER":89.3349,"MEAN_ANOMALY":270.8089,"EPHEMERIS_TYPE":0,"CLASSIFICATION_TYPE":"U","NORAD_CAT_ID":56066,"ELEMENT_SET_NO":999,"REV_AT_EPOCH":15662,"BSTAR":0.0003438,"MEAN_MOTION_DOT":1.44e-06,"MEAN_MOTION_DDOT":0.0},{"OBJECT_NAME":"ONEWEB-0578","OBJECT_ID":"2023-043X","EPOCH":"2026-05-29T18:49:06.443904","MEAN_MOTION":13.2182526,"ECCENTRICITY":0.0002284,"INCLINATION":87.926,"RA_OF_ASC_NODE":247.6333,"ARG_OF_PERICENTER":105.3449,"MEAN_ANOMALY":254.7937,"EPHEMERIS_TYPE":0,"CLASSIFICATION_TYPE":"U","NORAD_CAT_ID":56067,"ELEMENT_SET_NO":999,"REV_AT_EPOCH":15580,"BSTAR":3.2257000000000006e-05,"MEAN_MOTION_DOT":2.6e-07,"MEAN_MOTION_DDOT":0.0},{"OBJECT_NAME":"ONEWEB-0579","OBJECT_ID":"2023-043Y","EPOCH":"2026-05-29T18:36:59.699808","MEAN_MOTION":13.21825222,"ECCENTRICITY":0.0001754,"INCLINATION":87.9263,"RA_OF_ASC_NODE":247.631,"ARG_OF_PERICENTER":95.1037,"MEAN_ANOMALY":265.0297,"EPHEMERIS_TYPE":0,"CLASSIFICATION_TYPE":"U","NORAD_CAT_ID":56068,"ELEMENT_SET_NO":999,"REV_AT_EPOCH":15581,"BSTAR":0.00014288999999999998,"MEAN_MOTION_DOT":7.2e-07,"MEAN_MOTION_DDOT":0.0},{"OBJECT_NAME":"ONEWEB-0581","OBJECT_ID":"2023-043Z","EPOCH":"2026-05-29T18:12:57.469536","MEAN_MOTION":13.16595355,"ECCENTRICITY":0.0002451,"INCLINATION":87.9105,"RA_OF_ASC_NODE":232.4429,"ARG_OF_PERICENTER":89.7677,"MEAN_ANOMALY":270.3735,"EPHEMERIS_TYPE":0,"CLASSIFICATION_TYPE":"U","NORAD_CAT_ID":56069,"ELEMENT_SET_NO":999,"REV_AT_EPOCH":15653,"BSTAR":0.00016261000000000002,"MEAN_MOTION_DOT":7.5e-07,"MEAN_MOTION_DDOT":0.0},{"OBJECT_NAME":"ONEWEB-0609","OBJECT_ID":"2023-043AA","EPOCH":"2026-05-30T01:54:49.152384","MEAN_MOTION":13.1554757,"ECCENTRICITY":0.0001892,"INCLINATION":87.8993,"RA_OF_ASC_NODE":262.8198,"ARG_OF_PERICENTER":103.8214,"MEAN_ANOMALY":256.3127,"EPHEMERIS_TYPE":0,"CLASSIFICATION_TYPE":"U","NORAD_CAT_ID":56070,"ELEMENT_SET_NO":999,"REV_AT_EPOCH":15405,"BSTAR":0.00034805999999999997,"MEAN_MOTION_DOT":1.44e-06,"MEAN_MOTION_DDOT":0.0},{"OBJECT_NAME":"ONEWEB-0613","OBJECT_ID":"2023-043AB","EPOCH":"2026-05-29T18:33:18.693792","MEAN_MOTION":13.15548842,"ECCENTRICITY":0.0001627,"INCLINATION":87.8993,"RA_OF_ASC_NODE":262.8931,"ARG_OF_PERICENTER":99.9045,"MEAN_ANOMALY":260.2269,"EPHEMERIS_TYPE":0,"CLASSIFICATION_TYPE":"U","NORAD_CAT_ID":56071,"ELEMENT_SET_NO":999,"REV_AT_EPOCH":15401,"BSTAR":0.00018595000000000002,"MEAN_MOTION_DOT":8.3e-07,"MEAN_MOTION_DDOT":0.0},{"OBJECT_NAME":"ONEWEB-0630","OBJECT_ID":"2023-043AC","EPOCH":"2026-05-29T18:26:27.476448","MEAN_MOTION":13.15549868,"ECCENTRICITY":0.0001671,"INCLINATION":87.8995,"RA_OF_ASC_NODE":262.8649,"ARG_OF_PERICENTER":99.8461,"MEAN_ANOMALY":260.2858,"EPHEMERIS_TYPE":0,"CLASSIFICATION_TYPE":"U","NORAD_CAT_ID":56072,"ELEMENT_SET_NO":999,"REV_AT_EPOCH":15400,"BSTAR":0.00020772,"MEAN_MOTION_DOT":9.1e-07,"MEAN_MOTION_DDOT":0.0},{"OBJECT_NAME":"ONEWEB-0632","OBJECT_ID":"2023-043AD","EPOCH":"2026-05-29T18:19:37.084224","MEAN_MOTION":13.15547241,"ECCENTRICITY":0.0002011,"INCLINATION":87.8992,"RA_OF_ASC_NODE":262.8844,"ARG_OF_PERICENTER":95.7575,"MEAN_ANOMALY":264.3785,"EPHEMERIS_TYPE":0,"CLASSIFICATION_TYPE":"U","NORAD_CAT_ID":56073,"ELEMENT_SET_NO":999,"REV_AT_EPOCH":15400,"BSTAR":0.00030077,"MEAN_MOTION_DOT":1.26e-06,"MEAN_MOTION_DDOT":0.0},{"OBJECT_NAME":"ONEWEB-0633","OBJECT_ID":"2023-043AE","EPOCH":"2026-05-30T03:18:05.172768","MEAN_MOTION":13.15549394,"ECCENTRICITY":0.0001506,"INCLINATION":87.9003,"RA_OF_ASC_NODE":262.7835,"ARG_OF_PERICENTER":104.8408,"MEAN_ANOMALY":255.2889,"EPHEMERIS_TYPE":0,"CLASSIFICATION_TYPE":"U","NORAD_CAT_ID":56074,"ELEMENT_SET_NO":999,"REV_AT_EPOCH":15403,"BSTAR":0.00024104,"MEAN_MOTION_DOT":1.04e-06,"MEAN_MOTION_DDOT":0.0},{"OBJECT_NAME":"ONEWEB-0634","OBJECT_ID":"2023-043AF","EPOCH":"2026-05-29T17:49:57.113760","MEAN_MOTION":13.15547415,"ECCENTRICITY":0.0002064,"INCLINATION":87.8994,"RA_OF_ASC_NODE":262.9041,"ARG_OF_PERICENTER":109.7275,"MEAN_ANOMALY":250.4079,"EPHEMERIS_TYPE":0,"CLASSIFICATION_TYPE":"U","NORAD_CAT_ID":56075,"ELEMENT_SET_NO":999,"REV_AT_EPOCH":15397,"BSTAR":-9.1653e-05,"MEAN_MOTION_DOT":-2.2e-07,"MEAN_MOTION_DDOT":0.0},{"OBJECT_NAME":"ONEWEB-0635","OBJECT_ID":"2023-043AG","EPOCH":"2026-05-29T17:43:07.037760","MEAN_MOTION":13.1554942,"ECCENTRICITY":0.0002084,"INCLINATION":87.9002,"RA_OF_ASC_NODE":262.8657,"ARG_OF_PERICENTER":94.1435,"MEAN_ANOMALY":265.9934,"EPHEMERIS_TYPE":0,"CLASSIFICATION_TYPE":"U","NORAD_CAT_ID":56076,"ELEMENT_SET_NO":999,"REV_AT_EPOCH":15400,"BSTAR":-0.00029767,"MEAN_MOTION_DOT":-9.9e-07,"MEAN_MOTION_DDOT":0.0},{"OBJECT_NAME":"ONEWEB-0636","OBJECT_ID":"2023-043AH","EPOCH":"2026-05-29T17:31:42.528576","MEAN_MOTION":13.15547929,"ECCENTRICITY":0.0002071,"INCLINATION":87.8998,"RA_OF_ASC_NODE":262.875,"ARG_OF_PERICENTER":96.0591,"MEAN_ANOMALY":264.0776,"EPHEMERIS_TYPE":0,"CLASSIFICATION_TYPE":"U","NORAD_CAT_ID":56077,"ELEMENT_SET_NO":999,"REV_AT_EPOCH":15398,"BSTAR":-0.00027725,"MEAN_MOTION_DOT":-9.2e-07,"MEAN_MOTION_DDOT":0.0},{"OBJECT_NAME":"ONEWEB-0637","OBJECT_ID":"2023-043AJ","EPOCH":"2026-05-29T17:22:34.896000","MEAN_MOTION":13.15547698,"ECCENTRICITY":0.0002232,"INCLINATION":87.8995,"RA_OF_ASC_NODE":262.8934,"ARG_OF_PERICENTER":102.6117,"MEAN_ANOMALY":257.5263,"EPHEMERIS_TYPE":0,"CLASSIFICATION_TYPE":"U","NORAD_CAT_ID":56078,"ELEMENT_SET_NO":999,"REV_AT_EPOCH":15400,"BSTAR":-0.00042295,"MEAN_MOTION_DOT":-1.46e-06,"MEAN_MOTION_DDOT":0.0},{"OBJECT_NAME":"ONEWEB-0647","OBJECT_ID":"2023-043AK","EPOCH":"2026-05-29T19:05:15.586656","MEAN_MOTION":13.15547447,"ECCENTRICITY":0.0001886,"INCLINATION":87.8996,"RA_OF_ASC_NODE":262.8916,"ARG_OF_PERICENTER":95.5683,"MEAN_ANOMALY":264.5662,"EPHEMERIS_TYPE":0,"CLASSIFICATION_TYPE":"U","NORAD_CAT_ID":56079,"ELEMENT_SET_NO":999,"REV_AT_EPOCH":15400,"BSTAR":-0.00032111,"MEAN_MOTION_DOT":-1.08e-06,"MEAN_MOTION_DDOT":0.0},{"OBJECT_NAME":"ONEWEB-0651","OBJECT_ID":"2023-043AL","EPOCH":"2026-05-30T04:06:01.495296","MEAN_MOTION":13.15547894,"ECCENTRICITY":0.0002157,"INCLINATION":87.8994,"RA_OF_ASC_NODE":262.8106,"ARG_OF_PERICENTER":98.1146,"MEAN_ANOMALY":262.023,"EPHEMERIS_TYPE":0,"CLASSIFICATION_TYPE":"U","NORAD_CAT_ID":56080,"ELEMENT_SET_NO":999,"REV_AT_EPOCH":15525,"BSTAR":0.00013869999999999998,"MEAN_MOTION_DOT":6.5e-07,"MEAN_MOTION_DDOT":0.0},{"OBJECT_NAME":"ONEWEB-0718","OBJECT_ID":"2023-043AM","EPOCH":"2026-05-29T18:51:33.937344","MEAN_MOTION":13.15550117,"ECCENTRICITY":0.0001975,"INCLINATION":87.8994,"RA_OF_ASC_NODE":262.8679,"ARG_OF_PERICENTER":116.6033,"MEAN_ANOMALY":243.53,"EPHEMERIS_TYPE":0,"CLASSIFICATION_TYPE":"U","NORAD_CAT_ID":56081,"ELEMENT_SET_NO":999,"REV_AT_EPOCH":15401,"BSTAR":-8.4912e-05,"MEAN_MOTION_DOT":-1.9e-07,"MEAN_MOTION_DDOT":0.0},{"OBJECT_NAME":"ONEWEB-0561","OBJECT_ID":"2023-068A","EPOCH":"2026-05-29T18:55:48.628992","MEAN_MOTION":13.20769884,"ECCENTRICITY":0.000198,"INCLINATION":87.9181,"RA_OF_ASC_NODE":278.1107,"ARG_OF_PERICENTER":88.1119,"MEAN_ANOMALY":272.0241,"EPHEMERIS_TYPE":0,"CLASSIFICATION_TYPE":"U","NORAD_CAT_ID":56710,"ELEMENT_SET_NO":999,"REV_AT_EPOCH":14707,"BSTAR":3.5169e-05,"MEAN_MOTION_DOT":2.7e-07,"MEAN_MOTION_DDOT":0.0},{"OBJECT_NAME":"ONEWEB-0668","OBJECT_ID":"2023-068B","EPOCH":"2026-05-29T17:36:28.240416","MEAN_MOTION":13.16593188,"ECCENTRICITY":0.0002378,"INCLINATION":87.9108,"RA_OF_ASC_NODE":232.4356,"ARG_OF_PERICENTER":110.2652,"MEAN_ANOMALY":249.8735,"EPHEMERIS_TYPE":0,"CLASSIFICATION_TYPE":"U","NORAD_CAT_ID":56711,"ELEMENT_SET_NO":999,"REV_AT_EPOCH":14935,"BSTAR":0.00010079,"MEAN_MOTION_DOT":5.1e-07,"MEAN_MOTION_DDOT":0.0},{"OBJECT_NAME":"ONEWEB-0676","OBJECT_ID":"2023-068C","EPOCH":"2026-05-30T04:44:29.328288","MEAN_MOTION":13.16595189,"ECCENTRICITY":0.0002235,"INCLINATION":87.9106,"RA_OF_ASC_NODE":232.3496,"ARG_OF_PERICENTER":92.7625,"MEAN_ANOMALY":267.3762,"EPHEMERIS_TYPE":0,"CLASSIFICATION_TYPE":"U","NORAD_CAT_ID":56712,"ELEMENT_SET_NO":999,"REV_AT_EPOCH":14933,"BSTAR":5.5693000000000004e-05,"MEAN_MOTION_DOT":3.4e-07,"MEAN_MOTION_DDOT":0.0},{"OBJECT_NAME":"ONEWEB-0677","OBJECT_ID":"2023-068D","EPOCH":"2026-05-29T18:38:50.665920","MEAN_MOTION":13.20772339,"ECCENTRICITY":0.000234,"INCLINATION":87.9179,"RA_OF_ASC_NODE":278.1046,"ARG_OF_PERICENTER":99.3751,"MEAN_ANOMALY":260.7647,"EPHEMERIS_TYPE":0,"CLASSIFICATION_TYPE":"U","NORAD_CAT_ID":56713,"ELEMENT_SET_NO":999,"REV_AT_EPOCH":14737,"BSTAR":0.00011536000000000001,"MEAN_MOTION_DOT":6e-07,"MEAN_MOTION_DDOT":0.0},{"OBJECT_NAME":"ONEWEB-0678","OBJECT_ID":"2023-068E","EPOCH":"2026-05-29T18:05:55.179168","MEAN_MOTION":13.15546923,"ECCENTRICITY":0.0001688,"INCLINATION":87.9003,"RA_OF_ASC_NODE":262.8643,"ARG_OF_PERICENTER":93.2031,"MEAN_ANOMALY":266.9292,"EPHEMERIS_TYPE":0,"CLASSIFICATION_TYPE":"U","NORAD_CAT_ID":56714,"ELEMENT_SET_NO":999,"REV_AT_EPOCH":14686,"BSTAR":0.00017921999999999998,"MEAN_MOTION_DOT":8e-07,"MEAN_MOTION_DDOT":0.0},{"OBJECT_NAME":"ONEWEB-0679","OBJECT_ID":"2023-068F","EPOCH":"2026-05-29T18:38:01.939776","MEAN_MOTION":13.16593629,"ECCENTRICITY":0.0002593,"INCLINATION":87.9108,"RA_OF_ASC_NODE":232.4249,"ARG_OF_PERICENTER":102.8748,"MEAN_ANOMALY":257.2673,"EPHEMERIS_TYPE":0,"CLASSIFICATION_TYPE":"U","NORAD_CAT_ID":56715,"ELEMENT_SET_NO":999,"REV_AT_EPOCH":14930,"BSTAR":-0.00011478,"MEAN_MOTION_DOT":-3.1e-07,"MEAN_MOTION_DDOT":0.0}]